CCSDS_OMM_VERS = 2.0
CREATION_DATE  = 
ORIGINATOR     = 

OBJECT_NAME    = STARLINK-36930
OBJECT_ID      = 2026-040D
CENTER_NAME    = EARTH
REF_FRAME      = TEME
TIME_SYSTEM    = UTC
MEAN_ELEMENT_THEORY = SGP/SGP4

EPOCH          = 2026-03-11T10:00:01.999584
MEAN_MOTION    = 16.01729159
ECCENTRICITY   = .000087
INCLINATION    = 97.2761
RA_OF_ASC_NODE = 18.7496
ARG_OF_PERICENTER = 97.0417
MEAN_ANOMALY   = 266.5145

EPHEMERIS_TYPE = 0
CLASSIFICATION_TYPE = U
NORAD_CAT_ID   = 68018
ELEMENT_SET_NO = 999
REV_AT_EPOCH   = 270
BSTAR          = -.21085E-2
MEAN_MOTION_DOT = -.1173962E-1
MEAN_MOTION_DDOT = .44979E-3

CCSDS_OMM_VERS = 2.0
CREATION_DATE  = 
ORIGINATOR     = 

OBJECT_NAME    = STARLINK-36921
OBJECT_ID      = 2026-040E
CENTER_NAME    = EARTH
REF_FRAME      = TEME
TIME_SYSTEM    = UTC
MEAN_ELEMENT_THEORY = SGP/SGP4

EPOCH          = 2026-03-11T06:00:02.000160
MEAN_MOTION    = 16.02423775
ECCENTRICITY   = .00011063
INCLINATION    = 97.2764
RA_OF_ASC_NODE = 18.5726
ARG_OF_PERICENTER = 121.0334
MEAN_ANOMALY   = 13.3751

EPHEMERIS_TYPE = 0
CLASSIFICATION_TYPE = U
NORAD_CAT_ID   = 68019
ELEMENT_SET_NO = 999
REV_AT_EPOCH   = 267
BSTAR          = -.18133903E-2
MEAN_MOTION_DOT = -.1052306E-1
MEAN_MOTION_DDOT = .37033585E-3

CCSDS_OMM_VERS = 2.0
CREATION_DATE  = 
ORIGINATOR     = 

OBJECT_NAME    = STARLINK-36928
OBJECT_ID      = 2026-040F
CENTER_NAME    = EARTH
REF_FRAME      = TEME
TIME_SYSTEM    = UTC
MEAN_ELEMENT_THEORY = SGP/SGP4

EPOCH          = 2026-03-11T10:00:01.999584
MEAN_MOTION    = 16.02022122
ECCENTRICITY   = .0001072
INCLINATION    = 97.2761
RA_OF_ASC_NODE = 18.7527
ARG_OF_PERICENTER = 106.0057
MEAN_ANOMALY   = 266.0351

EPHEMERIS_TYPE = 0
CLASSIFICATION_TYPE = U
NORAD_CAT_ID   = 68020
ELEMENT_SET_NO = 999
REV_AT_EPOCH   = 270
BSTAR          = -.20801E-2
MEAN_MOTION_DOT = -.1177968E-1
MEAN_MOTION_DDOT = .45415E-3

CCSDS_OMM_VERS = 2.0
CREATION_DATE  = 
ORIGINATOR     = 

OBJECT_NAME    = STARLINK-36858
OBJECT_ID      = 2026-040G
CENTER_NAME    = EARTH
REF_FRAME      = TEME
TIME_SYSTEM    = UTC
MEAN_ELEMENT_THEORY = SGP/SGP4

EPOCH          = 2026-03-11T10:00:01.999584
MEAN_MOTION    = 16.06667413
ECCENTRICITY   = .0000931
INCLINATION    = 97.2755
RA_OF_ASC_NODE = 18.7587
ARG_OF_PERICENTER = 172.2003
MEAN_ANOMALY   = 214.5229

EPHEMERIS_TYPE = 0
CLASSIFICATION_TYPE = U
NORAD_CAT_ID   = 68021
ELEMENT_SET_NO = 999
REV_AT_EPOCH   = 270
BSTAR          = .12293E-2
MEAN_MOTION_DOT = .916749E-2
MEAN_MOTION_DDOT = .45644E-3

CCSDS_OMM_VERS = 2.0
CREATION_DATE  = 
ORIGINATOR     = 

OBJECT_NAME    = STARLINK-36916
OBJECT_ID      = 2026-040H
CENTER_NAME    = EARTH
REF_FRAME      = TEME
TIME_SYSTEM    = UTC
MEAN_ELEMENT_THEORY = SGP/SGP4

EPOCH          = 2026-03-11T10:00:01.999584
MEAN_MOTION    = 16.02328708
ECCENTRICITY   = .0000935
INCLINATION    = 97.2761
RA_OF_ASC_NODE = 18.7570
ARG_OF_PERICENTER = 93.1787
MEAN_ANOMALY   = 287.9719

EPHEMERIS_TYPE = 0
CLASSIFICATION_TYPE = U
NORAD_CAT_ID   = 68022
ELEMENT_SET_NO = 999
REV_AT_EPOCH   = 270
BSTAR          = -.20475E-2
MEAN_MOTION_DOT = -.1180295E-1
MEAN_MOTION_DDOT = .45743E-3

CCSDS_OMM_VERS = 2.0
CREATION_DATE  = 
ORIGINATOR     = 

OBJECT_NAME    = STARLINK-36871
OBJECT_ID      = 2026-040J
CENTER_NAME    = EARTH
REF_FRAME      = TEME
TIME_SYSTEM    = UTC
MEAN_ELEMENT_THEORY = SGP/SGP4

EPOCH          = 2026-03-11T10:00:01.999584
MEAN_MOTION    = 16.02441057
ECCENTRICITY   = .0000991
INCLINATION    = 97.2757
RA_OF_ASC_NODE = 18.7578
ARG_OF_PERICENTER = 95.7910
MEAN_ANOMALY   = 288.4164

EPHEMERIS_TYPE = 0
CLASSIFICATION_TYPE = U
NORAD_CAT_ID   = 68023
ELEMENT_SET_NO = 999
REV_AT_EPOCH   = 270
BSTAR          = -.20493E-2
MEAN_MOTION_DOT = -.1188987E-1
MEAN_MOTION_DDOT = .46428E-3

CCSDS_OMM_VERS = 2.0
CREATION_DATE  = 
ORIGINATOR     = 

OBJECT_NAME    = STARLINK-36891
OBJECT_ID      = 2026-040K
CENTER_NAME    = EARTH
REF_FRAME      = TEME
TIME_SYSTEM    = UTC
MEAN_ELEMENT_THEORY = SGP/SGP4

EPOCH          = 2026-03-11T10:00:01.999584
MEAN_MOTION    = 16.02562361
ECCENTRICITY   = .0000943
INCLINATION    = 97.2756
RA_OF_ASC_NODE = 18.7596
ARG_OF_PERICENTER = 99.1712
MEAN_ANOMALY   = 288.8120

EPHEMERIS_TYPE = 0
CLASSIFICATION_TYPE = U
NORAD_CAT_ID   = 68024
ELEMENT_SET_NO = 999
REV_AT_EPOCH   = 270
BSTAR          = -.20253E-2
MEAN_MOTION_DOT = -.1183502E-1
MEAN_MOTION_DDOT = .46098E-3

CCSDS_OMM_VERS = 2.0
CREATION_DATE  = 
ORIGINATOR     = 

OBJECT_NAME    = STARLINK-36378
OBJECT_ID      = 2026-040L
CENTER_NAME    = EARTH
REF_FRAME      = TEME
TIME_SYSTEM    = UTC
MEAN_ELEMENT_THEORY = SGP/SGP4

EPOCH          = 2026-03-11T10:00:01.999584
MEAN_MOTION    = 16.02783482
ECCENTRICITY   = .0000921
INCLINATION    = 97.2767
RA_OF_ASC_NODE = 18.7626
ARG_OF_PERICENTER = 98.1352
MEAN_ANOMALY   = 296.4963

EPHEMERIS_TYPE = 0
CLASSIFICATION_TYPE = U
NORAD_CAT_ID   = 68025
ELEMENT_SET_NO = 999
REV_AT_EPOCH   = 265
BSTAR          = -.19845E-2
MEAN_MOTION_DOT = -.117479E-1
MEAN_MOTION_DDOT = .45589E-3

CCSDS_OMM_VERS = 2.0
CREATION_DATE  = 
ORIGINATOR     = 

OBJECT_NAME    = STARLINK-36884
OBJECT_ID      = 2026-040M
CENTER_NAME    = EARTH
REF_FRAME      = TEME
TIME_SYSTEM    = UTC
MEAN_ELEMENT_THEORY = SGP/SGP4

EPOCH          = 2026-03-11T10:00:01.999584
MEAN_MOTION    = 16.02677818
ECCENTRICITY   = .0000907
INCLINATION    = 97.2761
RA_OF_ASC_NODE = 18.7609
ARG_OF_PERICENTER = 100.7646
MEAN_ANOMALY   = 290.6444

EPHEMERIS_TYPE = 0
CLASSIFICATION_TYPE = U
NORAD_CAT_ID   = 68026
ELEMENT_SET_NO = 999
REV_AT_EPOCH   = 270
BSTAR          = -.20218E-2
MEAN_MOTION_DOT = -.1189369E-1
MEAN_MOTION_DDOT = .46583E-3

CCSDS_OMM_VERS = 2.0
CREATION_DATE  = 
ORIGINATOR     = 

OBJECT_NAME    = STARLINK-36940
OBJECT_ID      = 2026-040N
CENTER_NAME    = EARTH
REF_FRAME      = TEME
TIME_SYSTEM    = UTC
MEAN_ELEMENT_THEORY = SGP/SGP4

EPOCH          = 2026-03-11T10:00:01.999584
MEAN_MOTION    = 16.04299800
ECCENTRICITY   = .000125
INCLINATION    = 97.2776
RA_OF_ASC_NODE = 18.7880
ARG_OF_PERICENTER = 95.9161
MEAN_ANOMALY   = 359.3158

EPHEMERIS_TYPE = 0
CLASSIFICATION_TYPE = U
NORAD_CAT_ID   = 68027
ELEMENT_SET_NO = 999
REV_AT_EPOCH   = 280
BSTAR          = -.22423E-2
MEAN_MOTION_DOT = -.1448735E-1
MEAN_MOTION_DDOT = .68425E-3

CCSDS_OMM_VERS = 2.0
CREATION_DATE  = 
ORIGINATOR     = 

OBJECT_NAME    = STARLINK-36253
OBJECT_ID      = 2026-040P
CENTER_NAME    = EARTH
REF_FRAME      = TEME
TIME_SYSTEM    = UTC
MEAN_ELEMENT_THEORY = SGP/SGP4

EPOCH          = 2026-03-11T10:00:01.999584
MEAN_MOTION    = 15.86430015
ECCENTRICITY   = .0001991
INCLINATION    = 97.2778
RA_OF_ASC_NODE = 18.6711
ARG_OF_PERICENTER = 115.2473
MEAN_ANOMALY   = 75.2051

EPHEMERIS_TYPE = 0
CLASSIFICATION_TYPE = U
NORAD_CAT_ID   = 68028
ELEMENT_SET_NO = 999
REV_AT_EPOCH   = 280
BSTAR          = -.10235E-1
MEAN_MOTION_DOT = -.2189811E-1
MEAN_MOTION_DDOT = 0

CCSDS_OMM_VERS = 2.0
CREATION_DATE  = 
ORIGINATOR     = 

OBJECT_NAME    = STARLINK-36944
OBJECT_ID      = 2026-040Q
CENTER_NAME    = EARTH
REF_FRAME      = TEME
TIME_SYSTEM    = UTC
MEAN_ELEMENT_THEORY = SGP/SGP4

EPOCH          = 2026-03-11T10:00:01.999584
MEAN_MOTION    = 16.02897325
ECCENTRICITY   = .0000908
INCLINATION    = 97.2755
RA_OF_ASC_NODE = 18.7631
ARG_OF_PERICENTER = 93.8218
MEAN_ANOMALY   = 303.7198

EPHEMERIS_TYPE = 0
CLASSIFICATION_TYPE = U
NORAD_CAT_ID   = 68029
ELEMENT_SET_NO = 999
REV_AT_EPOCH   = 270
BSTAR          = -.1996E-2
MEAN_MOTION_DOT = -.1189361E-1
MEAN_MOTION_DDOT = .46702E-3

