STARLINK-36930          
1 68018U 26040D   26070.41668981 -.01173962  44979-3 -21085-2 0  9998
2 68018  97.2761  18.7496 0000870  97.0417 266.5145 16.01729159  2704
STARLINK-36921          
1 68019U 26040E   26070.25002315 -.01052306  37034-3 -18134-2 0  9997
2 68019  97.2764  18.5726 0001106 121.0334  13.3751 16.02423775  2674
STARLINK-36928          
1 68020U 26040F   26070.41668981 -.01177968  45415-3 -20801-2 0  9992
2 68020  97.2761  18.7527 0001072 106.0057 266.0351 16.02022122  2709
STARLINK-36858          
1 68021U 26040G   26070.41668981  .00916749  45644-3  12293-2 0  9998
2 68021  97.2755  18.7587 0000931 172.2003 214.5229 16.06667413  2702
STARLINK-36916          
1 68022U 26040H   26070.41668981 -.01180295  45743-3 -20475-2 0  9992
2 68022  97.2761  18.7570 0000935  93.1787 287.9719 16.02328708  2701
STARLINK-36871          
1 68023U 26040J   26070.41668981 -.01188987  46428-3 -20493-2 0  9990
2 68023  97.2757  18.7578 0000991  95.7910 288.4164 16.02441057  2706
STARLINK-36891          
1 68024U 26040K   26070.41668981 -.01183502  46098-3 -20253-2 0  9996
2 68024  97.2756  18.7596 0000943  99.1712 288.8120 16.02562361  2709
STARLINK-36378          
1 68025U 26040L   26070.41668981 -.01174790  45589-3 -19845-2 0  9995
2 68025  97.2767  18.7626 0000921  98.1352 296.4963 16.02783482  2654
STARLINK-36884          
1 68026U 26040M   26070.41668981 -.01189369  46583-3 -20218-2 0  9995
2 68026  97.2761  18.7609 0000907 100.7646 290.6444 16.02677818  2701
STARLINK-36940          
1 68027U 26040N   26070.41668981 -.01448735  68425-3 -22423-2 0  9990
2 68027  97.2776  18.7880 0001250  95.9161 359.3158 16.04299800  2807
STARLINK-36253          
1 68028U 26040P   26070.41668981 -.02189811  00000+0 -10235-1 0  9997
2 68028  97.2778  18.6711 0001991 115.2473  75.2051 15.86430015  2806
STARLINK-36944          
1 68029U 26040Q   26070.41668981 -.01189361  46702-3 -19960-2 0  9995
2 68029  97.2755  18.7631 0000908  93.8218 303.7198 16.02897325  2709
